IRIDIUM 126             
1 42809U 17039G   25077.35090522  .00000857  00000+0  29885-3 0  9994
2 42809  86.4045 184.1336 0002348  91.4414 268.7051 14.34213164404611
IRIDIUM 124             
1 42810U 17039H   25077.54876092  .00000905  00000+0  26313-3 0  9998
2 42810  86.4468 120.8831 0002105  91.5797 268.5645 14.43289903409396
IRIDIUM 128             
1 42811U 17039J   25077.41141845  .00000683  00000+0  23678-3 0  9990
2 42811  86.4001 215.5713 0001855  89.9823 270.1585 14.34220043404659
IRIDIUM 121             
1 42812U 17039K   25077.36993672  .00000175  00000+0  55610-4 0  9996
2 42812  86.4049 184.1503 0001935  99.7111 260.4304 14.34212986404498
IRIDIUM 133             
1 42955U 17061A   25077.44313260  .00000699  00000+0  24246-3 0  9998
2 42955  86.3999 215.6639 0001926  88.3253 271.8163 14.34214686389456
IRIDIUM 100             
1 42956U 17061B   25077.43679013  .00000536  00000+0  18439-3 0  9996
2 42956  86.4000 215.5963 0001985  91.7034 268.4390 14.34217834389452
IRIDIUM 122             
1 42957U 17061C   25077.47484438  .00000797  00000+0  27739-3 0  9998
2 42957  86.4007 215.5801 0001940  85.4008 274.7409 14.34212038389466
IRIDIUM 129             
1 42958U 17061D   25077.43044864  .00000266  00000+0  87804-4 0  9991
2 42958  86.4002 215.6601 0002323 101.8073 258.3383 14.34217818389473
