<?xml version="1.0" encoding="UTF-8"?>
<ndm xmlns:xsi="http://www.w3.org/2001/XMLSchema-instance" xsi:noNamespaceSchemaLocation="https://sanaregistry.org/r/ndmxml_unqualified/ndmxml-2.0.0-master-2.0.xsd">
<omm id="CCSDS_OMM_VERS" version="2.0">
<header><CREATION_DATE/><ORIGINATOR/></header><body><segment><metadata><OBJECT_NAME>IRIDIUM 126</OBJECT_NAME><OBJECT_ID>2017-039G</OBJECT_ID><CENTER_NAME>EARTH</CENTER_NAME><REF_FRAME>TEME</REF_FRAME><TIME_SYSTEM>UTC</TIME_SYSTEM><MEAN_ELEMENT_THEORY>SGP4</MEAN_ELEMENT_THEORY></metadata><data><meanElements><EPOCH>2025-03-18T08:25:18.211008</EPOCH><MEAN_MOTION>14.34213164</MEAN_MOTION><ECCENTRICITY>.0002348</ECCENTRICITY><INCLINATION>86.4045</INCLINATION><RA_OF_ASC_NODE>184.1336</RA_OF_ASC_NODE><ARG_OF_PERICENTER>91.4414</ARG_OF_PERICENTER><MEAN_ANOMALY>268.7051</MEAN_ANOMALY></meanElements><tleParameters><EPHEMERIS_TYPE>0</EPHEMERIS_TYPE><CLASSIFICATION_TYPE>U</CLASSIFICATION_TYPE><NORAD_CAT_ID>42809</NORAD_CAT_ID><ELEMENT_SET_NO>999</ELEMENT_SET_NO><REV_AT_EPOCH>40461</REV_AT_EPOCH><BSTAR>.29885E-3</BSTAR><MEAN_MOTION_DOT>.857E-5</MEAN_MOTION_DOT><MEAN_MOTION_DDOT>0</MEAN_MOTION_DDOT></tleParameters></data></segment></body></omm>
<omm id="CCSDS_OMM_VERS" version="2.0">
<header><CREATION_DATE/><ORIGINATOR/></header><body><segment><metadata><OBJECT_NAME>IRIDIUM 124</OBJECT_NAME><OBJECT_ID>2017-039H</OBJECT_ID><CENTER_NAME>EARTH</CENTER_NAME><REF_FRAME>TEME</REF_FRAME><TIME_SYSTEM>UTC</TIME_SYSTEM><MEAN_ELEMENT_THEORY>SGP4</MEAN_ELEMENT_THEORY></metadata><data><meanElements><EPOCH>2025-03-18T13:10:12.943488</EPOCH><MEAN_MOTION>14.43289903</MEAN_MOTION><ECCENTRICITY>.0002105</ECCENTRICITY><INCLINATION>86.4468</INCLINATION><RA_OF_ASC_NODE>120.8831</RA_OF_ASC_NODE><ARG_OF_PERICENTER>91.5797</ARG_OF_PERICENTER><MEAN_ANOMALY>268.5645</MEAN_ANOMALY></meanElements><tleParameters><EPHEMERIS_TYPE>0</EPHEMERIS_TYPE><CLASSIFICATION_TYPE>U</CLASSIFICATION_TYPE><NORAD_CAT_ID>42810</NORAD_CAT_ID><ELEMENT_SET_NO>999</ELEMENT_SET_NO><REV_AT_EPOCH>40939</REV_AT_EPOCH><BSTAR>.26313E-3</BSTAR><MEAN_MOTION_DOT>.905E-5</MEAN_MOTION_DOT><MEAN_MOTION_DDOT>0</MEAN_MOTION_DDOT></tleParameters></data></segment></body></omm>
<omm id="CCSDS_OMM_VERS" version="2.0">
<header><CREATION_DATE/><ORIGINATOR/></header><body><segment><metadata><OBJECT_NAME>IRIDIUM 128</OBJECT_NAME><OBJECT_ID>2017-039J</OBJECT_ID><CENTER_NAME>EARTH</CENTER_NAME><REF_FRAME>TEME</REF_FRAME><TIME_SYSTEM>UTC</TIME_SYSTEM><MEAN_ELEMENT_THEORY>SGP4</MEAN_ELEMENT_THEORY></metadata><data><meanElements><EPOCH>2025-03-18T09:52:26.554080</EPOCH><MEAN_MOTION>14.34220043</MEAN_MOTION><ECCENTRICITY>.0001855</ECCENTRICITY><INCLINATION>86.4001</INCLINATION><RA_OF_ASC_NODE>215.5713</RA_OF_ASC_NODE><ARG_OF_PERICENTER>89.9823</ARG_OF_PERICENTER><MEAN_ANOMALY>270.1585</MEAN_ANOMALY></meanElements><tleParameters><EPHEMERIS_TYPE>0</EPHEMERIS_TYPE><CLASSIFICATION_TYPE>U</CLASSIFICATION_TYPE><NORAD_CAT_ID>42811</NORAD_CAT_ID><ELEMENT_SET_NO>999</ELEMENT_SET_NO><REV_AT_EPOCH>40465</REV_AT_EPOCH><BSTAR>.23678E-3</BSTAR><MEAN_MOTION_DOT>.683E-5</MEAN_MOTION_DOT><MEAN_MOTION_DDOT>0</MEAN_MOTION_DDOT></tleParameters></data></segment></body></omm>
<omm id="CCSDS_OMM_VERS" version="2.0">
<header><CREATION_DATE/><ORIGINATOR/></header><body><segment><metadata><OBJECT_NAME>IRIDIUM 121</OBJECT_NAME><OBJECT_ID>2017-039K</OBJECT_ID><CENTER_NAME>EARTH</CENTER_NAME><REF_FRAME>TEME</REF_FRAME><TIME_SYSTEM>UTC</TIME_SYSTEM><MEAN_ELEMENT_THEORY>SGP4</MEAN_ELEMENT_THEORY></metadata><data><meanElements><EPOCH>2025-03-18T08:52:42.532608</EPOCH><MEAN_MOTION>14.34212986</MEAN_MOTION><ECCENTRICITY>.0001935</ECCENTRICITY><INCLINATION>86.4049</INCLINATION><RA_OF_ASC_NODE>184.1503</RA_OF_ASC_NODE><ARG_OF_PERICENTER>99.7111</ARG_OF_PERICENTER><MEAN_ANOMALY>260.4304</MEAN_ANOMALY></meanElements><tleParameters><EPHEMERIS_TYPE>0</EPHEMERIS_TYPE><CLASSIFICATION_TYPE>U</CLASSIFICATION_TYPE><NORAD_CAT_ID>42812</NORAD_CAT_ID><ELEMENT_SET_NO>999</ELEMENT_SET_NO><REV_AT_EPOCH>40449</REV_AT_EPOCH><BSTAR>.5561E-4</BSTAR><MEAN_MOTION_DOT>.175E-5</MEAN_MOTION_DOT><MEAN_MOTION_DDOT>0</MEAN_MOTION_DDOT></tleParameters></data></segment></body></omm>
<omm id="CCSDS_OMM_VERS" version="2.0">
<header><CREATION_DATE/><ORIGINATOR/></header><body><segment><metadata><OBJECT_NAME>IRIDIUM 133</OBJECT_NAME><OBJECT_ID>2017-061A</OBJECT_ID><CENTER_NAME>EARTH</CENTER_NAME><REF_FRAME>TEME</REF_FRAME><TIME_SYSTEM>UTC</TIME_SYSTEM><MEAN_ELEMENT_THEORY>SGP4</MEAN_ELEMENT_THEORY></metadata><data><meanElements><EPOCH>2025-03-18T10:38:06.656640</EPOCH><MEAN_MOTION>14.34214686</MEAN_MOTION><ECCENTRICITY>.0001926</ECCENTRICITY><INCLINATION>86.3999</INCLINATION><RA_OF_ASC_NODE>215.6639</RA_OF_ASC_NODE><ARG_OF_PERICENTER>88.3253</ARG_OF_PERICENTER><MEAN_ANOMALY>271.8163</MEAN_ANOMALY></meanElements><tleParameters><EPHEMERIS_TYPE>0</EPHEMERIS_TYPE><CLASSIFICATION_TYPE>U</CLASSIFICATION_TYPE><NORAD_CAT_ID>42955</NORAD_CAT_ID><ELEMENT_SET_NO>999</ELEMENT_SET_NO><REV_AT_EPOCH>38945</REV_AT_EPOCH><BSTAR>.24246E-3</BSTAR><MEAN_MOTION_DOT>.699E-5</MEAN_MOTION_DOT><MEAN_MOTION_DDOT>0</MEAN_MOTION_DDOT></tleParameters></data></segment></body></omm>
<omm id="CCSDS_OMM_VERS" version="2.0">
<header><CREATION_DATE/><ORIGINATOR/></header><body><segment><metadata><OBJECT_NAME>IRIDIUM 100</OBJECT_NAME><OBJECT_ID>2017-061B</OBJECT_ID><CENTER_NAME>EARTH</CENTER_NAME><REF_FRAME>TEME</REF_FRAME><TIME_SYSTEM>UTC</TIME_SYSTEM><MEAN_ELEMENT_THEORY>SGP4</MEAN_ELEMENT_THEORY></metadata><data><meanElements><EPOCH>2025-03-18T10:28:58.667232</EPOCH><MEAN_MOTION>14.34217834</MEAN_MOTION><ECCENTRICITY>.0001985</ECCENTRICITY><INCLINATION>86.4000</INCLINATION><RA_OF_ASC_NODE>215.5963</RA_OF_ASC_NODE><ARG_OF_PERICENTER>91.7034</ARG_OF_PERICENTER><MEAN_ANOMALY>268.4390</MEAN_ANOMALY></meanElements><tleParameters><EPHEMERIS_TYPE>0</EPHEMERIS_TYPE><CLASSIFICATION_TYPE>U</CLASSIFICATION_TYPE><NORAD_CAT_ID>42956</NORAD_CAT_ID><ELEMENT_SET_NO>999</ELEMENT_SET_NO><REV_AT_EPOCH>38945</REV_AT_EPOCH><BSTAR>.18439E-3</BSTAR><MEAN_MOTION_DOT>.536E-5</MEAN_MOTION_DOT><MEAN_MOTION_DDOT>0</MEAN_MOTION_DDOT></tleParameters></data></segment></body></omm>
<omm id="CCSDS_OMM_VERS" version="2.0">
<header><CREATION_DATE/><ORIGINATOR/></header><body><segment><metadata><OBJECT_NAME>IRIDIUM 122</OBJECT_NAME><OBJECT_ID>2017-061C</OBJECT_ID><CENTER_NAME>EARTH</CENTER_NAME><REF_FRAME>TEME</REF_FRAME><TIME_SYSTEM>UTC</TIME_SYSTEM><MEAN_ELEMENT_THEORY>SGP4</MEAN_ELEMENT_THEORY></metadata><data><meanElements><EPOCH>2025-03-18T11:23:46.554432</EPOCH><MEAN_MOTION>14.34212038</MEAN_MOTION><ECCENTRICITY>.000194</ECCENTRICITY><INCLINATION>86.4007</INCLINATION><RA_OF_ASC_NODE>215.5801</RA_OF_ASC_NODE><ARG_OF_PERICENTER>85.4008</ARG_OF_PERICENTER><MEAN_ANOMALY>274.7409</MEAN_ANOMALY></meanElements><tleParameters><EPHEMERIS_TYPE>0</EPHEMERIS_TYPE><CLASSIFICATION_TYPE>U</CLASSIFICATION_TYPE><NORAD_CAT_ID>42957</NORAD_CAT_ID><ELEMENT_SET_NO>999</ELEMENT_SET_NO><REV_AT_EPOCH>38946</REV_AT_EPOCH><BSTAR>.27739E-3</BSTAR><MEAN_MOTION_DOT>.797E-5</MEAN_MOTION_DOT><MEAN_MOTION_DDOT>0</MEAN_MOTION_DDOT></tleParameters></data></segment></body></omm>
<omm id="CCSDS_OMM_VERS" version="2.0">
<header><CREATION_DATE/><ORIGINATOR/></header><body><segment><metadata><OBJECT_NAME>IRIDIUM 129</OBJECT_NAME><OBJECT_ID>2017-061D</OBJECT_ID><CENTER_NAME>EARTH</CENTER_NAME><REF_FRAME>TEME</REF_FRAME><TIME_SYSTEM>UTC</TIME_SYSTEM><MEAN_ELEMENT_THEORY>SGP4</MEAN_ELEMENT_THEORY></metadata><data><meanElements><EPOCH>2025-03-18T10:19:50.762496</EPOCH><MEAN_MOTION>14.34217818</MEAN_MOTION><ECCENTRICITY>.0002323</ECCENTRICITY><INCLINATION>86.4002</INCLINATION><RA_OF_ASC_NODE>215.6601</RA_OF_ASC_NODE><ARG_OF_PERICENTER>101.8073</ARG_OF_PERICENTER><MEAN_ANOMALY>258.3383</MEAN_ANOMALY></meanElements><tleParameters><EPHEMERIS_TYPE>0</EPHEMERIS_TYPE><CLASSIFICATION_TYPE>U</CLASSIFICATION_TYPE><NORAD_CAT_ID>42958</NORAD_CAT_ID><ELEMENT_SET_NO>999</ELEMENT_SET_NO><REV_AT_EPOCH>38947</REV_AT_EPOCH><BSTAR>.87804E-4</BSTAR><MEAN_MOTION_DOT>.266E-5</MEAN_MOTION_DOT><MEAN_MOTION_DDOT>0</MEAN_MOTION_DDOT></tleParameters></data></segment></body></omm>

</ndm>
